[{"OBJECT_NAME":"STARLINK-4332","OBJECT_ID":"2022-084B","EPOCH":"2026-03-09T15:18:09.286272","MEAN_MOTION":15.05645682,"ECCENTRICITY":6.38e-5,"INCLINATION":97.603,"RA_OF_ASC_NODE":131.1579,"ARG_OF_PERICENTER":159.7019,"MEAN_ANOMALY":200.4234,"EPHEMERIS_TYPE":0,"CLASSIFICATION_TYPE":"U","NORAD_CAT_ID":53190,"ELEMENT_SET_NO":999,"REV_AT_EPOCH":20004,"BSTAR":1.0623e-5,"MEAN_MOTION_DOT":9.3e-7,"MEAN_MOTION_DDOT":0},{"OBJECT_NAME":"GEESAT-2 06","OBJECT_ID":"2024-023F","EPOCH":"2026-03-09T23:05:26.548512","MEAN_MOTION":15.0311163,"ECCENTRICITY":0.0006403,"INCLINATION":49.9884,"RA_OF_ASC_NODE":54.2248,"ARG_OF_PERICENTER":18.468,"MEAN_ANOMALY":341.6498,"EPHEMERIS_TYPE":0,"CLASSIFICATION_TYPE":"U","NORAD_CAT_ID":58910,"ELEMENT_SET_NO":999,"REV_AT_EPOCH":11471,"BSTAR":0.00060492991,"MEAN_MOTION_DOT":8.006e-5,"MEAN_MOTION_DDOT":0}]
